STARLINK-37361          
1 69134U 26110L   26166.25002315 -.00022201  00000+0 -68745-3 0  9993
2 69134  97.2840   2.6971 0002180  89.5306 233.9387 15.33439454  5340
STARLINK-37372          
1 69135U 26110M   26166.26840934 -.00575545  00000+0 -12339-1 0  9992
2 69135  97.2830   2.6856 0000865  39.3785 320.7528 15.46857925  5314
STARLINK-37531          
1 69136U 26110N   26166.25002315 -.01707008  00000+0 -56291-1 0  9992
2 69136  97.2838   2.7115 0002795 106.2461 246.7089 15.34588163  5345
STARLINK-37662          
1 69137U 26110P   26166.13858239 -.00378667  00000+0 -75972-2 0  9996
2 69137  97.2828   2.5565 0002076 174.8014 185.3259 15.48045909  5291
STARLINK-37658          
1 69138U 26110Q   26166.10548480  .00062045  00000+0  11324-2 0  9997
2 69138  97.2831   2.4483 0001310  98.8831 261.2569 15.49217626  5281
STARLINK-37659          
1 69139U 26110R   26166.11320212  .00062074  00000+0  11341-2 0  9991
2 69139  97.2839   2.4379 0001908  66.7224 293.4228 15.49185652  5289
STARLINK-37653          
1 69140U 26110S   26166.11564171  .00080644  00000+0  14678-2 0  9996
2 69140  97.2838   2.4360 0001402  81.9506 278.1904 15.49217728  5282
STARLINK-37654          
1 69141U 26110T   26166.26586381  .00034695  00000+0  63555-3 0  9994
2 69141  97.2827   2.6893 0002202  79.3546 280.7953 15.49242557  5313
STARLINK-37655          
1 69142U 26110U   26166.25002315 -.02403482  00000+0 -62614-1 0  9995
2 69142  97.2831   2.7230 0001738 102.9973 265.3051 15.42405240  5349
STARLINK-37636          
1 69143U 26110V   26166.25002315 -.00019234  00000+0 -59592-3 0  9995
2 69143  97.2844   2.7565 0001975  83.3308  15.2210 15.33392449  5347
STARLINK-37638          
1 69144U 26110W   26166.25002315 -.00022768  00000+0 -70524-3 0  9990
2 69144  97.2847   2.7626 0001348  84.6163  28.8940 15.33434680  5340
STARLINK-37657          
1 69145U 26110X   26166.07229517  .00055938  00000+0  10212-2 0  9996
2 69145  97.2823   2.4942 0001846  84.2287 275.9175 15.49236504  5289
STARLINK-37639          
1 69146U 26110Y   26166.25002315 -.00020366  00000+0 -63043-3 0  9992
2 69146  97.2843   2.7773 0001675  86.2576  57.2628 15.33432796  5390
STARLINK-37661          
1 69147U 26110Z   26166.28751763  .00032100  00000+0  58915-3 0  9993
2 69147  97.2833   2.6607 0001636  95.8484 264.2953 15.49204405  5310
STARLINK-37395          
1 69148U 26111A   26166.25002315 -.00705443  00000+0 -77738-2 0  9996
2 69148  53.1591 161.5898 0001132  73.5541 192.9241 15.64682290  5235
STARLINK-37346          
1 69149U 26111B   26166.25002315  .00013983  00000+0  25915-3 0  9997
2 69149  53.1600 162.0805 0001471  77.2697 307.2570 15.49294045  5236
STARLINK-37332          
1 69150U 26111C   26166.25002315  .00015086  00000+0  27887-3 0  9995
2 69150  53.1586 162.4063 0001307  83.4913 140.2160 15.49298929  5234
STARLINK-37297          
1 69151U 26111D   26166.25002315 -.02911261  00000+0 -32559-1 0  9990
2 69151  53.1595 161.5271 0001967 100.9337 196.1840 15.65554463  5234
STARLINK-37317          
1 69152U 26111E   26166.25002315 -.02547373  00000+0 -23967-1 0  9993
2 69152  53.1598 161.4136 0000865  83.7682 268.7634 15.69860874  5231
STARLINK-37374          
1 69153U 26111F   26166.25002315  .00008917  00000+0  16824-3 0  9992
2 69153  53.1588 162.5829 0000898  86.3131  49.7936 15.49301286  5233
STARLINK-37235          
1 69154U 26111G   26166.31156017  .00032252  00000+0  58549-3 0  9998
2 69154  53.1588 162.5293 0001421  59.4000 300.7150 15.49312212  3943
STARLINK-37329          
1 69155U 26111H   26166.25002315 -.02601963  00000+0 -24635-1 0  9995
2 69155  53.1597 161.4175 0000850  85.9898 264.7789 15.69790232  5230
STARLINK-37345          
1 69156U 26111J   26166.25002315 -.02594325  00000+0 -22889-1 0  9998
2 69156  53.1599 161.3783 0000864  82.1742 287.8119 15.71444652  5237
STARLINK-37353          
1 69157U 26111K   26166.25002315 -.02574070  00000+0 -22452-1 0  9990
2 69157  53.1596 161.3732 0000836  82.9293 289.5180 15.71683768  5237
STARLINK-37363          
1 69158U 26111L   26166.25002315 -.02008081  00000+0 -17801-1 0  9997
2 69158  53.1598 161.3746 0000714  67.7743 303.8333 15.71015123  5235
STARLINK-37343          
1 69159U 26111M   26166.25002315  .00011040  00000+0  20632-3 0  9991
2 69159  53.1588 162.5837 0000888  81.1492  54.1843 15.49301760  5234
STARLINK-37328          
1 69160U 26111N   26164.72352018  .00440945  00000+0  21155-2 0  9991
2 69160  53.1569 168.9418 0002882  21.7732 338.3413 15.80975520  3710
STARLINK-37311          
1 69161U 26111P   26166.25002315 -.02542170  00000+0 -19124-1 0  9993
2 69161  53.1584 161.4650 0000748  85.9248 242.0529 15.75048985  5235
STARLINK-36286          
1 69162U 26111Q   26165.05091157  .00507206  00000+0  26694-2 0  9991
2 69162  53.1564 167.4332 0002061 147.7855 212.3293 15.78761169  3761
STARLINK-37196          
1 69163U 26111R   26165.56034997  .00136844  00000+0  77789-3 0  9995
2 69163  53.1566 164.9214 0001435  48.8780 311.2365 15.78098124  3849
