OBJECT_NAME,OBJECT_ID,EPOCH,MEAN_MOTION,ECCENTRICITY,INCLINATION,RA_OF_ASC_NODE,ARG_OF_PERICENTER,MEAN_ANOMALY,EPHEMERIS_TYPE,CLASSIFICATION_TYPE,NORAD_CAT_ID,ELEMENT_SET_NO,REV_AT_EPOCH,BSTAR,MEAN_MOTION_DOT,MEAN_MOTION_DDOT
STARLINK-37361,2026-110L,2026-06-15T06:00:02.000160,15.33439454,.00021809,97.2840,2.6971,89.5306,233.9387,0,U,69134,999,534,-.68745322E-3,-.22201E-3,0
STARLINK-37372,2026-110M,2026-06-15T06:26:30.566976,15.46857925,.00008655,97.2830,2.6856,39.3785,320.7528,0,U,69135,999,531,-.12338989E-1,-.575545E-2,0
STARLINK-37531,2026-110N,2026-06-15T06:00:02.000160,15.34588163,.00027955,97.2838,2.7115,106.2461,246.7089,0,U,69136,999,534,-.56290977E-1,-.1707008E-1,0
STARLINK-37662,2026-110P,2026-06-15T03:19:33.518496,15.48045909,.00020767,97.2828,2.5565,174.8014,185.3259,0,U,69137,999,529,-.75971595E-2,-.378667E-2,0
STARLINK-37658,2026-110Q,2026-06-15T02:31:53.886720,15.49217626,.00013102,97.2831,2.4483,98.8831,261.2569,0,U,69138,999,528,.1132371E-2,.62045E-3,0
STARLINK-37659,2026-110R,2026-06-15T02:43:00.663168,15.49185652,.00019085,97.2839,2.4379,66.7224,293.4228,0,U,69139,999,528,.11341375E-2,.62074E-3,0
STARLINK-37653,2026-110S,2026-06-15T02:46:31.443744,15.49217728,.00014021,97.2838,2.4360,81.9506,278.1904,0,U,69140,999,528,.14678322E-2,.80644E-3,0
STARLINK-37654,2026-110T,2026-06-15T06:22:50.633184,15.49242557,.00022023,97.2827,2.6893,79.3546,280.7953,0,U,69141,999,531,.6355543E-3,.34695E-3,0
STARLINK-37655,2026-110U,2026-06-15T06:00:02.000160,15.42405240,.00017383,97.2831,2.7230,102.9973,265.3051,0,U,69142,999,534,-.6261387E-1,-.2403482E-1,0
STARLINK-37636,2026-110V,2026-06-15T06:00:02.000160,15.33392449,.00019753,97.2844,2.7565,83.3308,15.2210,0,U,69143,999,534,-.59591855E-3,-.19234E-3,0
STARLINK-37638,2026-110W,2026-06-15T06:00:02.000160,15.33434680,.00013489,97.2847,2.7626,84.6163,28.8940,0,U,69144,999,534,-.70523984E-3,-.22768E-3,0
STARLINK-37657,2026-110X,2026-06-15T01:44:06.302688,15.49236504,.00018463,97.2823,2.4942,84.2287,275.9175,0,U,69145,999,528,.10211641E-2,.55938E-3,0
STARLINK-37639,2026-110Y,2026-06-15T06:00:02.000160,15.33432796,.00016756,97.2843,2.7773,86.2576,57.2628,0,U,69146,999,539,-.63043101E-3,-.20366E-3,0
STARLINK-37661,2026-110Z,2026-06-15T06:54:01.523232,15.49204405,.00016362,97.2833,2.6607,95.8484,264.2953,0,U,69147,999,531,.58914682E-3,.321E-3,0
STARLINK-37395,2026-111A,2026-06-15T06:00:02.000160,15.64682290,.00011321,53.1591,161.5898,73.5541,192.9241,0,U,69148,999,523,-.77737875E-2,-.705443E-2,0
STARLINK-37346,2026-111B,2026-06-15T06:00:02.000160,15.49294045,.00014711,53.1600,162.0805,77.2697,307.2570,0,U,69149,999,523,.2591544E-3,.13983E-3,0
STARLINK-37332,2026-111C,2026-06-15T06:00:02.000160,15.49298929,.00013075,53.1586,162.4063,83.4913,140.2160,0,U,69150,999,523,.27887218E-3,.15086E-3,0
STARLINK-37297,2026-111D,2026-06-15T06:00:02.000160,15.65554463,.00019677,53.1595,161.5271,100.9337,196.1840,0,U,69151,999,523,-.3255913E-1,-.2911261E-1,0
STARLINK-37317,2026-111E,2026-06-15T06:00:02.000160,15.69860874,.00008655,53.1598,161.4136,83.7682,268.7634,0,U,69152,999,523,-.23967222E-1,-.2547373E-1,0
STARLINK-37374,2026-111F,2026-06-15T06:00:02.000160,15.49301286,.00008981,53.1588,162.5829,86.3131,49.7936,0,U,69153,999,523,.16824057E-3,.8917E-4,0
STARLINK-37235,2026-111G,2026-06-15T07:28:38.798688,15.49312212,.00014214,53.1588,162.5293,59.4000,300.7150,0,U,69154,999,394,.58548943E-3,.32252E-3,0
STARLINK-37329,2026-111H,2026-06-15T06:00:02.000160,15.69790232,.000085,53.1597,161.4175,85.9898,264.7789,0,U,69155,999,523,-.24634568E-1,-.2601963E-1,0
STARLINK-37345,2026-111J,2026-06-15T06:00:02.000160,15.71444652,.00008646,53.1599,161.3783,82.1742,287.8119,0,U,69156,999,523,-.22888846E-1,-.2594325E-1,0
STARLINK-37353,2026-111K,2026-06-15T06:00:02.000160,15.71683768,.00008361,53.1596,161.3732,82.9293,289.5180,0,U,69157,999,523,-.2245244E-1,-.257407E-1,0
STARLINK-37363,2026-111L,2026-06-15T06:00:02.000160,15.71015123,.00007143,53.1598,161.3746,67.7743,303.8333,0,U,69158,999,523,-.1780093E-1,-.2008081E-1,0
STARLINK-37343,2026-111M,2026-06-15T06:00:02.000160,15.49301760,.00008882,53.1588,162.5837,81.1492,54.1843,0,U,69159,999,523,.20631796E-3,.1104E-3,0
STARLINK-37328,2026-111N,2026-06-13T17:21:52.143552,15.80975520,.00028828,53.1569,168.9418,21.7732,338.3413,0,U,69160,999,371,.21155205E-2,.440945E-2,0
STARLINK-37311,2026-111P,2026-06-15T06:00:02.000160,15.75048985,.00007486,53.1584,161.4650,85.9248,242.0529,0,U,69161,999,523,-.1912371E-1,-.254217E-1,0
STARLINK-36286,2026-111Q,2026-06-14T01:13:18.759648,15.78761169,.00020619,53.1564,167.4332,147.7855,212.3293,0,U,69162,999,376,.26694472E-2,.507206E-2,0
STARLINK-37196,2026-111R,2026-06-14T13:26:54.237408,15.78098124,.0001435,53.1566,164.9214,48.8780,311.2365,0,U,69163,999,384,.77789E-3,.136844E-2,0
